start=new Date('2023-01-23T00:00:00.000Z').valueOf();
sats=[{"INCLINATION":"42.9990","SEMIMAJOR_AXIS":"6733.147","TLE_LINE2":"2 54850  42.9990 228.9133 0002116 269.6646  90.3979 15.71359700  3978","EPOCH":"2023-01-21T14:21:04.772160","MEAN_ELEMENT_THEORY":"SGP4","CENTER_NAME":"EARTH","MEAN_MOTION_DDOT":"0.0000000000000","CLASSIFICATION_TYPE":"U","NORAD_CAT_ID":"54850","REF_FRAME":"TEME","BSTAR":"0.00001548700000","ARG_OF_PERICENTER":"269.6646","LAUNCH_DATE":"2022-12-28","ELEMENT_SET_NO":"999","MEAN_ANOMALY":"90.3979","MEAN_MOTION":"15.71359700","GP_ID":"223581777","ECCENTRICITY":"0.00021160","FILE":"3757351","OBJECT_NAME":"STARLINK-5087","TLE_LINE1":"1 54850U 22177AG  23021.59797190  .00001579  00000-0  15487-4 0  9997","OBJECT_TYPE":"PAYLOAD","TIME_SYSTEM":"UTC","DECAY_DATE":null,"APOAPSIS":"356.437","EPHEMERIS_TYPE":"0","SITE":"AFETR","MEAN_MOTION_DOT":"0.00001579","PERIAPSIS":"353.587","REV_AT_EPOCH":"397","OBJECT_ID":"2022-177AG","COUNTRY_CODE":"US","PERIOD":"91.640","RA_OF_ASC_NODE":"228.9133","RCS_SIZE":"LARGE"},{"FILE":"3758044","ELEMENT_SET_NO":"999","MEAN_ANOMALY":"95.0136","GP_ID":"223596747","ECCENTRICITY":"0.00017270","MEAN_MOTION":"15.71334057","REF_FRAME":"TEME","ARG_OF_PERICENTER":"265.0535","BSTAR":"-0.00001677800000","LAUNCH_DATE":"2022-12-28","NORAD_CAT_ID":"54851","CLASSIFICATION_TYPE":"U","CENTER_NAME":"EARTH","MEAN_MOTION_DDOT":"0.0000000000000","INCLINATION":"42.9992","EPOCH":"2023-01-22T14:45:42.935328","TLE_LINE2":"2 54851  42.9992 222.7761 0001727 265.0535  95.0136 15.71334057  4138","SEMIMAJOR_AXIS":"6733.220","MEAN_ELEMENT_THEORY":"SGP4","RCS_SIZE":"LARGE","COUNTRY_CODE":"US","PERIOD":"91.642","RA_OF_ASC_NODE":"222.7761","PERIAPSIS":"353.922","REV_AT_EPOCH":"413","OBJECT_ID":"2022-177AH","APOAPSIS":"356.248","EPHEMERIS_TYPE":"0","SITE":"AFETR","MEAN_MOTION_DOT":"-0.00002649","OBJECT_TYPE":"PAYLOAD","TIME_SYSTEM":"UTC","DECAY_DATE":null,"OBJECT_NAME":"STARLINK-5084","TLE_LINE1":"1 54851U 22177AH  23022.61508027 -.00002649  00000-0 -16778-4 0  9996"},{"DECAY_DATE":null,"TIME_SYSTEM":"UTC","OBJECT_TYPE":"PAYLOAD","MEAN_MOTION_DOT":"-0.00003672","SITE":"AFETR","APOAPSIS":"355.983","EPHEMERIS_TYPE":"0","TLE_LINE1":"1 54852U 22177AJ  23022.61466017 -.00003672  00000-0 -24603-4 0  9992","OBJECT_NAME":"STARLINK-5418","RCS_SIZE":"LARGE","OBJECT_ID":"2022-177AJ","REV_AT_EPOCH":"413","PERIAPSIS":"354.230","RA_OF_ASC_NODE":"222.7739","PERIOD":"91.642","COUNTRY_CODE":"US","CLASSIFICATION_TYPE":"U","NORAD_CAT_ID":"54852","LAUNCH_DATE":"2022-12-28","ARG_OF_PERICENTER":"264.1369","BSTAR":"-0.00002460300000","REF_FRAME":"TEME","EPOCH":"2023-01-22T14:45:06.638688","TLE_LINE2":"2 54852  42.9986 222.7739 0001302 264.1369  95.9350 15.71326672  4132","SEMIMAJOR_AXIS":"6733.241","MEAN_ELEMENT_THEORY":"SGP4","INCLINATION":"42.9986","MEAN_MOTION_DDOT":"0.0000000000000","CENTER_NAME":"EARTH","FILE":"3758048","ECCENTRICITY":"0.00013020","GP_ID":"223597299","MEAN_MOTION":"15.71326672","MEAN_ANOMALY":"95.9350","ELEMENT_SET_NO":"999"},{"ECCENTRICITY":"0.00022190","GP_ID":"223576703","MEAN_MOTION":"15.71362994","MEAN_ANOMALY":"92.7276","ELEMENT_SET_NO":"999","FILE":"3757118","MEAN_MOTION_DDOT":"0.0000000000000","CENTER_NAME":"EARTH","MEAN_ELEMENT_THEORY":"SGP4","TLE_LINE2":"2 54853  42.9983 228.9121 0002219 267.3338  92.7276 15.71362994  3972","SEMIMAJOR_AXIS":"6733.138","EPOCH":"2023-01-21T14:20:55.632768","INCLINATION":"42.9983","LAUNCH_DATE":"2022-12-28","ARG_OF_PERICENTER":"267.3338","BSTAR":"0.00003760100000","REF_FRAME":"TEME","NORAD_CAT_ID":"54853","CLASSIFICATION_TYPE":"U","RA_OF_ASC_NODE":"228.9121","PERIOD":"91.640","COUNTRY_CODE":"US","OBJECT_ID":"2022-177AK","REV_AT_EPOCH":"397","PERIAPSIS":"353.509","RCS_SIZE":"LARGE","TLE_LINE1":"1 54853U 22177AK  23021.59786612  .00004483  00000-0  37601-4 0  9996","OBJECT_NAME":"STARLINK-5427","MEAN_MOTION_DOT":"0.00004483","SITE":"AFETR","EPHEMERIS_TYPE":"0","APOAPSIS":"356.497","DECAY_DATE":null,"TIME_SYSTEM":"UTC","OBJECT_TYPE":"PAYLOAD"},{"LAUNCH_DATE":"2022-12-28","BSTAR":"0.00012714000000","ARG_OF_PERICENTER":"350.4121","REF_FRAME":"TEME","NORAD_CAT_ID":"54854","CLASSIFICATION_TYPE":"U","MEAN_MOTION_DDOT":"0.0000000000000","CENTER_NAME":"EARTH","SEMIMAJOR_AXIS":"6733.760","TLE_LINE2":"2 54854  43.0076 228.9084 0002469 350.4121   9.6699 15.71145226  3970","EPOCH":"2023-01-21T14:20:25.724544","MEAN_ELEMENT_THEORY":"SGP4","INCLINATION":"43.0076","FILE":"3757315","GP_ID":"223581186","MEAN_MOTION":"15.71145226","ECCENTRICITY":"0.00024690","MEAN_ANOMALY":"9.6699","ELEMENT_SET_NO":"999","MEAN_MOTION_DOT":"0.00016106","SITE":"AFETR","EPHEMERIS_TYPE":"0","APOAPSIS":"357.287","DECAY_DATE":null,"OBJECT_TYPE":"PAYLOAD","TIME_SYSTEM":"UTC","TLE_LINE1":"1 54854U 22177AL  23021.59751996  .00016106  00000-0  12714-3 0  9996","OBJECT_NAME":"STARLINK-5419","RCS_SIZE":"LARGE","RA_OF_ASC_NODE":"228.9084","PERIOD":"91.653","COUNTRY_CODE":"US","OBJECT_ID":"2022-177AL","REV_AT_EPOCH":"397","PERIAPSIS":"353.962"},{"REF_FRAME":"TEME","ARG_OF_PERICENTER":"253.3373","BSTAR":"0.00020245000000","LAUNCH_DATE":"2022-12-28","NORAD_CAT_ID":"54855","CLASSIFICATION_TYPE":"U","CENTER_NAME":"EARTH","MEAN_MOTION_DDOT":"0.0000000000000","INCLINATION":"42.9981","EPOCH":"2023-01-22T14:44:47.927904","TLE_LINE2":"2 54855  42.9981 222.7731 0003045 253.3373 106.7161 15.71499868  4132","SEMIMAJOR_AXIS":"6732.747","MEAN_ELEMENT_THEORY":"SGP4","FILE":"3758066","ELEMENT_SET_NO":"999","MEAN_ANOMALY":"106.7161","MEAN_MOTION":"15.71499868","GP_ID":"223597583","ECCENTRICITY":"0.00030450","APOAPSIS":"356.662","EPHEMERIS_TYPE":"0","MEAN_MOTION_DOT":"0.00026345","SITE":"AFETR","OBJECT_TYPE":"PAYLOAD","TIME_SYSTEM":"UTC","DECAY_DATE":null,"OBJECT_NAME":"STARLINK-5416","TLE_LINE1":"1 54855U 22177AM  23022.61444361  .00026345  00000-0  20245-3 0  9990","RCS_SIZE":"LARGE","COUNTRY_CODE":"US","RA_OF_ASC_NODE":"222.7731","PERIOD":"91.632","PERIAPSIS":"352.562","REV_AT_EPOCH":"413","OBJECT_ID":"2022-177AM"},{"RCS_SIZE":"LARGE","PERIOD":"91.641","RA_OF_ASC_NODE":"227.3662","COUNTRY_CODE":"US","REV_AT_EPOCH":"401","OBJECT_ID":"2022-177AN","PERIAPSIS":"353.371","EPHEMERIS_TYPE":"0","APOAPSIS":"356.694","MEAN_MOTION_DOT":"-0.00002683","SITE":"AFETR","DECAY_DATE":null,"OBJECT_TYPE":"PAYLOAD","TIME_SYSTEM":"UTC","OBJECT_NAME":"STARLINK-5086","TLE_LINE1":"1 54856U 22177AN  23021.85096109 -.00002683  00000-0 -17010-4 0  9997","FILE":"3757369","MEAN_ANOMALY":"85.2683","GP_ID":"223582501","ECCENTRICITY":"0.00024680","MEAN_MOTION":"15.71352559","ELEMENT_SET_NO":"999","ARG_OF_PERICENTER":"274.7903","BSTAR":"-0.00001701000000","LAUNCH_DATE":"2022-12-28","REF_FRAME":"TEME","NORAD_CAT_ID":"54856","CLASSIFICATION_TYPE":"U","MEAN_MOTION_DDOT":"0.0000000000000","CENTER_NAME":"EARTH","INCLINATION":"43.0004","TLE_LINE2":"2 54856  43.0004 227.3662 0002468 274.7903  85.2683 15.71352559  4011","SEMIMAJOR_AXIS":"6733.167","EPOCH":"2023-01-21T20:25:23.038176","MEAN_ELEMENT_THEORY":"SGP4"},{"FILE":"3758067","GP_ID":"223597102","ECCENTRICITY":"0.00022580","MEAN_MOTION":"15.71345526","MEAN_ANOMALY":"90.9225","ELEMENT_SET_NO":"999","LAUNCH_DATE":"2022-12-28","BSTAR":"0.00003912800000","ARG_OF_PERICENTER":"269.1384","REF_FRAME":"TEME","CLASSIFICATION_TYPE":"U","NORAD_CAT_ID":"54857","MEAN_MOTION_DDOT":"0.0000000000000","CENTER_NAME":"EARTH","TLE_LINE2":"2 54857  42.9989 222.7721 0002258 269.1384  90.9225 15.71345526  4139","EPOCH":"2023-01-22T14:45:15.097248","SEMIMAJOR_AXIS":"6733.188","MEAN_ELEMENT_THEORY":"SGP4","INCLINATION":"42.9989","RCS_SIZE":"LARGE","RA_OF_ASC_NODE":"222.7721","PERIOD":"91.641","COUNTRY_CODE":"US","OBJECT_ID":"2022-177AP","REV_AT_EPOCH":"413","PERIAPSIS":"353.532","SITE":"AFETR","MEAN_MOTION_DOT":"0.00004679","APOAPSIS":"356.573","EPHEMERIS_TYPE":"0","DECAY_DATE":null,"OBJECT_TYPE":"PAYLOAD","TIME_SYSTEM":"UTC","TLE_LINE1":"1 54857U 22177AP  23022.61475807  .00004679  00000-0  39128-4 0  9998","OBJECT_NAME":"STARLINK-5078"},{"ELEMENT_SET_NO":"999","ECCENTRICITY":"0.00019270","GP_ID":"223597185","MEAN_MOTION":"15.71352646","MEAN_ANOMALY":"77.7301","FILE":"3758072","TLE_LINE2":"2 54858  42.9983 222.7686 0001927 282.3351  77.7301 15.71352646  4136","SEMIMAJOR_AXIS":"6733.167","EPOCH":"2023-01-22T14:44:29.639616","MEAN_ELEMENT_THEORY":"SGP4","INCLINATION":"42.9983","CENTER_NAME":"EARTH","MEAN_MOTION_DDOT":"0.0000000000000","CLASSIFICATION_TYPE":"U","NORAD_CAT_ID":"54858","REF_FRAME":"TEME","LAUNCH_DATE":"2022-12-28","BSTAR":"0.00000657030000","ARG_OF_PERICENTER":"282.3351","PERIAPSIS":"353.735","OBJECT_ID":"2022-177AQ","REV_AT_EPOCH":"413","COUNTRY_CODE":"US","RA_OF_ASC_NODE":"222.7686","PERIOD":"91.641","RCS_SIZE":"LARGE","TLE_LINE1":"1 54858U 22177AQ  23022.61423194  .00000409  00000-0  65703-5 0  9997","OBJECT_NAME":"STARLINK-5407","TIME_SYSTEM":"UTC","OBJECT_TYPE":"PAYLOAD","DECAY_DATE":null,"SITE":"AFETR","MEAN_MOTION_DOT":"0.00000409","APOAPSIS":"356.330","EPHEMERIS_TYPE":"0"},{"TLE_LINE1":"1 54859U 22177AR  23021.59681601 -.00000086  00000-0  27863-5 0  9990","OBJECT_NAME":"STARLINK-5409","MEAN_MOTION_DOT":"-0.00000086","SITE":"AFETR","EPHEMERIS_TYPE":"0","APOAPSIS":"356.067","DECAY_DATE":null,"TIME_SYSTEM":"UTC","OBJECT_TYPE":"PAYLOAD","RA_OF_ASC_NODE":"228.9020","PERIOD":"91.641","COUNTRY_CODE":"US","OBJECT_ID":"2022-177AR","REV_AT_EPOCH":"397","PERIAPSIS":"353.976","RCS_SIZE":"LARGE","MEAN_MOTION_DDOT":"0.0000000000000","CENTER_NAME":"EARTH","SEMIMAJOR_AXIS":"6733.157","TLE_LINE2":"2 54859  42.9966 228.9020 0001553 257.4037 102.6657 15.71356324  3977","EPOCH":"2023-01-21T14:19:24.903264","MEAN_ELEMENT_THEORY":"SGP4","INCLINATION":"42.9966","LAUNCH_DATE":"2022-12-28","BSTAR":"0.00000278630000","ARG_OF_PERICENTER":"257.4037","REF_FRAME":"TEME","NORAD_CAT_ID":"54859","CLASSIFICATION_TYPE":"U","ECCENTRICITY":"0.00015530","GP_ID":"223577417","MEAN_MOTION":"15.71356324","MEAN_ANOMALY":"102.6657","ELEMENT_SET_NO":"999","FILE":"3757155"}];
